{"type": "FeatureCollection", "features": [{"type": "Feature", "properties": {"norad_id": 66549, "name": "SHIJIAN-28 (SJ-28)", "group": "last-30-days", "lat": -0.7950366925036033, "lon": -93.99612522259899, "alt_km": 35790.9820582521, "timestamp": "2025-12-21T03:56:49.613825+00:00", "meta": {"OBJECT_NAME": "SHIJIAN-28 (SJ-28)", "OBJECT_ID": "2025-277A", "EPOCH": "2025-12-20T20:34:34.195008", "MEAN_MOTION": 1.00267811, "ECCENTRICITY": 0.0001036, "INCLINATION": 4.9987, "RA_OF_ASC_NODE": 274.8297, "ARG_OF_PERICENTER": 136.7623, "MEAN_ANOMALY": 103.5438, "EPHEMERIS_TYPE": 0, "CLASSIFICATION_TYPE": "U", "NORAD_CAT_ID": 66549, "ELEMENT_SET_NO": 999, "REV_AT_EPOCH": 36, "BSTAR": 0, "MEAN_MOTION_DOT": -3.32e-06, "MEAN_MOTION_DDOT": 0}, "tle": {"line1": "1 66549U 25277A   25354.85734022 -.00000332  00000+0  00000+0 0  9990", "line2": "2 66549   4.9987 274.8297 0001036 136.7623 103.5438  1.00267811   365"}}, "geometry": {"type": "Point", "coordinates": [-93.99612522259899, -0.7950366925036033]}}, {"type": "Feature", "properties": {"norad_id": 66550, "name": "CZ-7A R/B", "group": "last-30-days", "lat": 7.029001448095209, "lon": -65.87067841675902, "alt_km": 25866.412596990715, "timestamp": "2025-12-21T03:56:49.613878+00:00", "meta": {"OBJECT_NAME": "CZ-7A R/B", "OBJECT_ID": "2025-277B", "EPOCH": "2025-12-18T08:54:45.891072", "MEAN_MOTION": 2.8884184, "ECCENTRICITY": 0.6879086, "INCLINATION": 14.3533, "RA_OF_ASC_NODE": 266.9093, "ARG_OF_PERICENTER": 194.6822, "MEAN_ANOMALY": 125.1782, "EPHEMERIS_TYPE": 0, "CLASSIFICATION_TYPE": "U", "NORAD_CAT_ID": 66550, "ELEMENT_SET_NO": 999, "REV_AT_EPOCH": 50, "BSTAR": 0.0030391, "MEAN_MOTION_DOT": 0.0266328, "MEAN_MOTION_DDOT": 1.4058e-06}, "tle": {"line1": "1 66550U 25277B   25352.37136448  .02663280  14058-5  30391-2 0  9996", "line2": "2 66550  14.3533 266.9093 6879086 194.6822 125.1782  2.88841840   508"}}, "geometry": {"type": "Point", "coordinates": [-65.87067841675902, 7.029001448095209]}}, {"type": "Feature", "properties": {"norad_id": 66554, "name": "GLOBAL-33", "group": "last-30-days", "lat": 30.57645262828586, "lon": 147.34677129397122, "alt_km": 463.4805684140165, "timestamp": "2025-12-21T03:56:49.613904+00:00", "meta": {"OBJECT_NAME": "GLOBAL-33", "OBJECT_ID": "2025-267A", "EPOCH": "2025-12-20T10:09:54.490176", "MEAN_MOTION": 15.3162198, "ECCENTRICITY": 0.00038385, "INCLINATION": 42.0214, "RA_OF_ASC_NODE": 12.634, "ARG_OF_PERICENTER": 144.4876, "MEAN_ANOMALY": 215.6217, "EPHEMERIS_TYPE": 0, "CLASSIFICATION_TYPE": "U", "NORAD_CAT_ID": 66554, "ELEMENT_SET_NO": 999, "REV_AT_EPOCH": 458, "BSTAR": 0.00030721953, "MEAN_MOTION_DOT": 9.345e-05, "MEAN_MOTION_DDOT": 0}, "tle": {"line1": "1 66554U 25267A   25354.42354734  .00009345  00000+0  30722-3 0  9996", "line2": "2 66554  42.0214  12.6340 0003838 144.4876 215.6217 15.31621980  4580"}}, "geometry": {"type": "Point", "coordinates": [147.34677129397122, 30.57645262828586]}}, {"type": "Feature", "properties": {"norad_id": 66557, "name": "STARLINK-35699", "group": "last-30-days", "lat": 15.896588732400211, "lon": 89.71835318813812, "alt_km": 410.3179320637728, "timestamp": "2025-12-21T03:56:49.613916+00:00", "meta": {"OBJECT_NAME": "STARLINK-35699", "OBJECT_ID": "2025-268A", "EPOCH": "2025-12-19T13:12:05.651424", "MEAN_MOTION": 15.50689057, "ECCENTRICITY": 0.0002216, "INCLINATION": 43.0009, "RA_OF_ASC_NODE": 81.3713, "ARG_OF_PERICENTER": 38.1148, "MEAN_ANOMALY": 321.9869, "EPHEMERIS_TYPE": 0, "CLASSIFICATION_TYPE": "U", "NORAD_CAT_ID": 66557, "ELEMENT_SET_NO": 999, "REV_AT_EPOCH": 568, "BSTAR": 0.00095065, "MEAN_MOTION_DOT": 0.00056051, "MEAN_MOTION_DDOT": 0}, "tle": {"line1": "1 66557U 25268A   25353.55006541  .00056051  00000+0  95065-3 0  9990", "line2": "2 66557  43.0009  81.3713 0002216  38.1148 321.9869 15.50689057  5689"}}, "geometry": {"type": "Point", "coordinates": [89.71835318813812, 15.896588732400211]}}, {"type": "Feature", "properties": {"norad_id": 66558, "name": "STARLINK-35695", "group": "last-30-days", "lat": 30.04972346660985, "lon": 110.24136921492021, "alt_km": 394.22812522176355, "timestamp": "2025-12-21T03:56:49.613927+00:00", "meta": {"OBJECT_NAME": "STARLINK-35695", "OBJECT_ID": "2025-268B", "EPOCH": "2025-12-20T20:00:01.999008", "MEAN_MOTION": 15.56299861, "ECCENTRICITY": 0.0001357, "INCLINATION": 42.9997, "RA_OF_ASC_NODE": 73.8189, "ARG_OF_PERICENTER": 213.5127, "MEAN_ANOMALY": 136.4406, "EPHEMERIS_TYPE": 0, "CLASSIFICATION_TYPE": "U", "NORAD_CAT_ID": 66558, "ELEMENT_SET_NO": 999, "REV_AT_EPOCH": 596, "BSTAR": 0.0018726, "MEAN_MOTION_DOT": 0.0013728, "MEAN_MOTION_DDOT": 0}, "tle": {"line1": "1 66558U 25268B   25354.83335647  .00137280  00000+0  18726-2 0  9997", "line2": "2 66558  42.9997  73.8189 0001357 213.5127 136.4406 15.56299861  5961"}}, "geometry": {"type": "Point", "coordinates": [110.24136921492021, 30.04972346660985]}}, {"type": "Feature", "properties": {"norad_id": 66559, "name": "STARLINK-35419", "group": "last-30-days", "lat": 31.114562757222888, "lon": 112.23481712288115, "alt_km": 393.9861106985145, "timestamp": "2025-12-21T03:56:49.613939+00:00", "meta": {"OBJECT_NAME": "STARLINK-35419", "OBJECT_ID": "2025-268C", "EPOCH": "2025-12-20T20:00:01.999008", "MEAN_MOTION": 15.56448662, "ECCENTRICITY": 0.0001592, "INCLINATION": 43.0006, "RA_OF_ASC_NODE": 73.8193, "ARG_OF_PERICENTER": 266.3626, "MEAN_ANOMALY": 85.5023, "EPHEMERIS_TYPE": 0, "CLASSIFICATION_TYPE": "U", "NORAD_CAT_ID": 66559, "ELEMENT_SET_NO": 999, "REV_AT_EPOCH": 596, "BSTAR": -0.0011575, "MEAN_MOTION_DOT": -0.00083577, "MEAN_MOTION_DDOT": 0}, "tle": {"line1": "1 66559U 25268C   25354.83335647 -.00083577  00000+0 -11575-2 0  9994", "line2": "2 66559  43.0006  73.8193 0001592 266.3626  85.5023 15.56448662  5965"}}, "geometry": {"type": "Point", "coordinates": [112.23481712288115, 31.114562757222888]}}, {"type": "Feature", "properties": {"norad_id": 66560, "name": "STARLINK-35411", "group": "last-30-days", "lat": 32.09857332567361, "lon": 114.16956503735463, "alt_km": 393.8567294511622, "timestamp": "2025-12-21T03:56:49.613949+00:00", "meta": {"OBJECT_NAME": "STARLINK-35411", "OBJECT_ID": "2025-268D", "EPOCH": "2025-12-20T20:00:01.999008", "MEAN_MOTION": 15.56453714, "ECCENTRICITY": 0.0001567, "INCLINATION": 43.0004, "RA_OF_ASC_NODE": 73.8145, "ARG_OF_PERICENTER": 265.6011, "MEAN_ANOMALY": 88.1845, "EPHEMERIS_TYPE": 0, "CLASSIFICATION_TYPE": "U", "NORAD_CAT_ID": 66560, "ELEMENT_SET_NO": 999, "REV_AT_EPOCH": 596, "BSTAR": -0.0013467, "MEAN_MOTION_DOT": -0.00097037, "MEAN_MOTION_DDOT": 0}, "tle": {"line1": "1 66560U 25268D   25354.83335647 -.00097037  00000+0 -13467-2 0  9994", "line2": "2 66560  43.0004  73.8145 0001567 265.6011  88.1845 15.56453714  5969"}}, "geometry": {"type": "Point", "coordinates": [114.16956503735463, 32.09857332567361]}}, {"type": "Feature", "properties": {"norad_id": 66561, "name": "STARLINK-35305", "group": "last-30-days", "lat": 33.97182877476992, "lon": 118.15851534596136, "alt_km": 393.67941687545044, "timestamp": "2025-12-21T03:56:49.613959+00:00", "meta": {"OBJECT_NAME": "STARLINK-35305", "OBJECT_ID": "2025-268E", "EPOCH": "2025-12-20T20:00:01.999008", "MEAN_MOTION": 15.56452371, "ECCENTRICITY": 0.000179, "INCLINATION": 43.0005, "RA_OF_ASC_NODE": 73.8049, "ARG_OF_PERICENTER": 269.1184, "MEAN_ANOMALY": 88.5015, "EPHEMERIS_TYPE": 0, "CLASSIFICATION_TYPE": "U", "NORAD_CAT_ID": 66561, "ELEMENT_SET_NO": 999, "REV_AT_EPOCH": 592, "BSTAR": -0.0013141, "MEAN_MOTION_DOT": -0.00094722, "MEAN_MOTION_DDOT": 0}, "tle": {"line1": "1 66561U 25268E   25354.83335647 -.00094722  00000+0 -13141-2 0  9992", "line2": "2 66561  43.0005  73.8049 0001790 269.1184  88.5015 15.56452371  5929"}}, "geometry": {"type": "Point", "coordinates": [118.15851534596136, 33.97182877476992]}}, {"type": "Feature", "properties": {"norad_id": 66562, "name": "STARLINK-35579", "group": "last-30-days", "lat": 33.051149472510815, "lon": 116.1423897383744, "alt_km": 393.7292476127377, "timestamp": "2025-12-21T03:56:49.613968+00:00", "meta": {"OBJECT_NAME": "STARLINK-35579", "OBJECT_ID": "2025-268F", "EPOCH": "2025-12-20T20:00:01.999008", "MEAN_MOTION": 15.56455173, "ECCENTRICITY": 0.0001548, "INCLINATION": 43.0005, "RA_OF_ASC_NODE": 73.8094, "ARG_OF_PERICENTER": 264.4827, "MEAN_ANOMALY": 91.2213, "EPHEMERIS_TYPE": 0, "CLASSIFICATION_TYPE": "U", "NORAD_CAT_ID": 66562, "ELEMENT_SET_NO": 999, "REV_AT_EPOCH": 596, "BSTAR": -0.0014074, "MEAN_MOTION_DOT": -0.00101341, "MEAN_MOTION_DDOT": 0}, "tle": {"line1": "1 66562U 25268F   25354.83335647 -.00101341  00000+0 -14074-2 0  9995", "line2": "2 66562  43.0005  73.8094 0001548 264.4827  91.2213 15.56455173  5961"}}, "geometry": {"type": "Point", "coordinates": [116.1423897383744, 33.051149472510815]}}, {"type": "Feature", "properties": {"norad_id": 66563, "name": "STARLINK-35437", "group": "last-30-days", "lat": 34.85901113729573, "lon": 120.21775112036025, "alt_km": 393.5239280127262, "timestamp": "2025-12-21T03:56:49.613978+00:00", "meta": {"OBJECT_NAME": "STARLINK-35437", "OBJECT_ID": "2025-268G", "EPOCH": "2025-12-20T20:00:01.999008", "MEAN_MOTION": 15.56457754, "ECCENTRICITY": 0.0001594, "INCLINATION": 43.0008, "RA_OF_ASC_NODE": 73.8002, "ARG_OF_PERICENTER": 263.035, "MEAN_ANOMALY": 96.5053, "EPHEMERIS_TYPE": 0, "CLASSIFICATION_TYPE": "U", "NORAD_CAT_ID": 66563, "ELEMENT_SET_NO": 999, "REV_AT_EPOCH": 596, "BSTAR": -0.0015141, "MEAN_MOTION_DOT": -0.00108903, "MEAN_MOTION_DDOT": 0}, "tle": {"line1": "1 66563U 25268G   25354.83335647 -.00108903  00000+0 -15141-2 0  9993", "line2": "2 66563  43.0008  73.8002 0001594 263.0350  96.5053 15.56457754  5968"}}, "geometry": {"type": "Point", "coordinates": [120.21775112036025, 34.85901113729573]}}]}